OBJECT_NAME,OBJECT_ID,EPOCH,MEAN_MOTION,ECCENTRICITY,INCLINATION,RA_OF_ASC_NODE,ARG_OF_PERICENTER,MEAN_ANOMALY,EPHEMERIS_TYPE,CLASSIFICATION_TYPE,NORAD_CAT_ID,ELEMENT_SET_NO,REV_AT_EPOCH,BSTAR,MEAN_MOTION_DOT,MEAN_MOTION_DDOT
COSMOS 2058,1990-010A,2026-07-08T18:35:59.396928,15.12137250,.00079054,82.4675,288.0655,277.5988,82.4345,0,U,20465,999,96053,.91404097E-4,.1605E-4,0
SL-14 R/B,1990-010B,2026-07-08T22:50:42.172800,14.83660547,.00181721,82.5030,153.5050,259.4978,100.4189,0,U,20466,999,94646,.29995924E-4,.272E-5,0
SL-14 R/B,1990-018B,2026-07-08T21:12:52.241472,14.82231335,.00174346,82.5222,109.8294,56.2392,304.0480,0,U,20511,999,94053,.31219181E-4,.273E-5,0
HST,1990-037B,2026-07-08T17:18:38.370816,15.31013397,.0001994,28.4736,293.3726,41.8079,318.2669,0,U,20580,999,79187,.15028511E-3,.4866E-4,0
SL-16 R/B,1990-046B,2026-07-08T20:41:55.858848,14.15022779,.00124879,70.9983,43.4254,125.5447,234.6842,0,U,20625,999,86553,-.607361E-5,-.59E-6,0
COSMOS 2084,1990-055A,2026-07-08T15:19:59.589696,15.06208428,.00072976,62.7905,282.8685,311.7356,48.3120,0,U,20663,999,95453,.93900226E-4,.1181E-4,0
SL-6 R/B(2),1990-055D,2026-07-08T10:59:09.928320,15.04070221,.00440592,62.7798,202.9908,8.0871,352.0929,0,U,20666,999,95635,.10917407E-3,.134E-4,0
SL-8 R/B,1990-078B,2026-07-08T21:52:07.419936,14.93408823,.03445479,82.9023,141.9992,324.9410,32.9553,0,U,20775,999,82736,.46254958E-3,.16326E-3,0
SL-8 R/B,1991-006B,2026-07-08T18:46:19.081056,13.77508357,.00237085,82.9417,79.9683,57.6027,7.0489,0,U,21088,999,78074,.41867219E-4,.57E-6,0
OKEAN-3,1991-039A,2026-07-08T14:36:23.891040,15.05413970,.00119872,82.5138,219.6070,279.3835,80.6036,0,U,21397,999,88322,.90004887E-4,.1321E-4,0
COSMOS 2151,1991-042A,2026-07-08T22:23:52.506240,15.00501932,.00125725,82.4976,326.6935,16.5565,343.6067,0,U,21422,999,88137,.10509562E-3,.1352E-4,0
SL-14 R/B,1991-042B,2026-07-08T19:51:40.812480,14.81915751,.00164115,82.4936,106.6031,198.0889,161.9743,0,U,21423,999,87101,.2655961E-4,.234E-5,0
ERS-1,1991-050A,2026-07-08T22:05:41.315712,14.39530081,.00315034,98.7794,211.1493,200.5076,159.4849,0,U,21574,999,83317,.65018468E-4,.157E-5,0
ARIANE 40 R/B,1991-050F,2026-07-08T18:04:34.932576,14.42969614,.000437,98.1864,237.3288,75.3560,284.8115,0,U,21610,999,83645,.67634777E-4,.185E-5,0
INTERCOSMOS 25,1991-086A,2026-07-08T15:42:47.211840,12.12232507,.14842557,82.6018,236.8190,216.0431,133.1121,0,U,21819,999,51134,.23634697E-3,.1199E-4,0
SL-8 R/B,1992-008B,2026-07-08T22:25:05.128032,13.75982387,.00353105,82.9265,177.6181,153.7197,234.2118,0,U,21876,999,72609,.1159836E-3,.128E-5,0
SL-8 R/B,1992-020B,2026-07-08T15:44:33.195264,13.75550328,.00282576,82.9291,63.9096,322.5336,90.3283,0,U,21938,999,71776,.6830948E-5,.22E-6,0
USA 81,1992-023A,2026-07-08T15:37:10.886880,14.32403758,.0002265,85.0057,61.6178,67.5623,292.5809,0,U,21949,999,11210,.33763969E-4,.111E-5,0
COSMOS 2219,1992-076A,2026-07-08T21:46:00.162912,14.14110096,.00178462,71.0615,124.6680,7.5306,352.6080,0,U,22219,999,73551,-.15299798E-4,-.76E-6,0
SL-16 R/B,1992-076B,2026-07-08T15:22:39.150624,14.16874525,.0014984,71.0009,293.5883,270.4742,189.1163,0,U,22220,999,73896,.93963217E-4,.141E-5,0
COSMOS 2221,1992-080A,2026-07-08T22:27:44.669952,14.96592175,.0015317,82.5039,162.9268,139.4809,220.7557,0,U,22236,999,79892,.10188819E-3,.1189E-4,0
SL-16 R/B,1992-093B,2026-07-08T20:48:53.892288,14.15467031,.0002639,71.0224,109.8792,148.7552,211.3728,0,U,22285,999,73030,.10292435E-4,-.27E-6,0
COSMOS 2228,1992-094A,2026-07-08T22:27:42.894432,14.97662742,.0016035,82.5190,121.2112,252.2567,107.6906,0,U,22286,999,79420,.10662947E-3,.1277E-4,0
SL-16 R/B,1993-016B,2026-07-08T18:41:42.166464,14.15311610,.00090553,71.0084,320.8564,149.5406,210.6245,0,U,22566,999,71930,-.44164275E-4,-.134E-5,0
COSMOS 2242,1993-024A,2026-07-08T21:43:41.682720,14.96972014,.00143745,82.5194,150.7640,256.0301,103.9323,0,U,22626,999,79852,.11266203E-3,.1323E-4,0
SL-16 R/B,1993-059B,2026-07-08T22:42:41.583168,14.17251142,.00163178,70.9907,115.4183,18.1304,342.0398,0,U,22803,999,69671,-.51681369E-4,-.153E-5,0
ARIANE 40 R/B,1993-061H,2026-07-08T18:46:25.579200,14.32916884,.00094721,98.4809,256.1897,287.2125,72.8022,0,U,22830,999,71144,.5991023E-4,.121E-5,0
COSMOS 2278,1994-023A,2026-07-08T16:13:17.830848,14.14394308,.00099545,71.0535,281.9662,215.5451,144.5009,0,U,23087,999,66191,-.87563367E-4,-.215E-5,0
SL-16 R/B,1994-023B,2026-07-08T22:49:12.363456,14.15024143,.00015458,70.9977,176.2254,150.3353,209.7858,0,U,23088,999,66324,-.54380351E-4,-.153E-5,0
SL-16 R/B,1994-074B,2026-07-08T15:56:19.322592,14.79520704,.00066236,97.6985,215.4894,174.3013,300.3375,0,U,23343,999,70513,.46113345E-4,.296E-5,0
