COSMOS 2058             
1 20465U 90010A   26189.77499302  .00001605  00000+0  91404-4 0  9997
2 20465  82.4675 288.0655 0007905 277.5988  82.4345 15.12137250960538
SL-14 R/B               
1 20466U 90010B   26189.95187700  .00000272  00000+0  29996-4 0  9990
2 20466  82.5030 153.5050 0018172 259.4978 100.4189 14.83660547946466
SL-14 R/B               
1 20511U 90018B   26189.88393798  .00000273  00000+0  31219-4 0  9999
2 20511  82.5222 109.8294 0017434  56.2392 304.0480 14.82231335940533
HST                     
1 20580U 90037B   26189.72127744  .00004866  00000+0  15029-3 0  9997
2 20580  28.4736 293.3726 0001994  41.8079 318.2669 15.31013397791871
SL-16 R/B               
1 20625U 90046B   26189.86245207 -.00000059  00000+0 -60736-5 0  9996
2 20625  70.9983  43.4254 0012487 125.5447 234.6842 14.15022779865539
COSMOS 2084             
1 20663U 90055A   26189.63888414  .00001181  00000+0  93900-4 0  9999
2 20663  62.7905 282.8685 0007297 311.7356  48.3120 15.06208428954538
SL-6 R/B(2)             
1 20666U 90055D   26189.45775380  .00001340  00000+0  10917-3 0  9992
2 20666  62.7798 202.9908 0044059   8.0871 352.0929 15.04070221956357
SL-8 R/B                
1 20775U 90078B   26189.91119699  .00016326  00000+0  46255-3 0  9998
2 20775  82.9023 141.9992 0344547 324.9410  32.9553 14.93408823827367
SL-8 R/B                
1 21088U 91006B   26189.78216529  .00000057  00000+0  41867-4 0  9992
2 21088  82.9417  79.9683 0023708  57.6027   7.0489 13.77508357780741
OKEAN-3                 
1 21397U 91039A   26189.60860985  .00001321  00000+0  90005-4 0  9996
2 21397  82.5138 219.6070 0011987 279.3835  80.6036 15.05413970883220
COSMOS 2151             
1 21422U 91042A   26189.93324660  .00001352  00000+0  10510-3 0  9996
2 21422  82.4976 326.6935 0012572  16.5565 343.6067 15.00501932881370
SL-14 R/B               
1 21423U 91042B   26189.82755570  .00000234  00000+0  26560-4 0  9994
2 21423  82.4936 106.6031 0016411 198.0889 161.9743 14.81915751871019
ERS-1                   
1 21574U 91050A   26189.92061708  .00000157  00000+0  65018-4 0  9999
2 21574  98.7794 211.1493 0031503 200.5076 159.4849 14.39530081833174
ARIANE 40 R/B           
1 21610U 91050F   26189.75318209  .00000185  00000+0  67635-4 0  9990
2 21610  98.1864 237.3288 0004370  75.3560 284.8115 14.42969614836452
INTERCOSMOS 25          
1 21819U 91086A   26189.65471310  .00001199  00000+0  23635-3 0  9999
2 21819  82.6018 236.8190 1484255 216.0431 133.1121 12.12232507511344
SL-8 R/B                
1 21876U 92008B   26189.93408713  .00000128  00000+0  11598-3 0  9991
2 21876  82.9265 177.6181 0035310 153.7197 234.2118 13.75982387726092
SL-8 R/B                
1 21938U 92020B   26189.65593976  .00000022  00000+0  68309-5 0  9996
2 21938  82.9291  63.9096 0028257 322.5336  90.3283 13.75550328717769
USA 81                  
1 21949U 92023A   26189.65082045  .00000111  00000+0  33764-4 0  9996
2 21949  85.0057  61.6178 0002265  67.5623 292.5809 14.32403758112102
COSMOS 2219             
1 22219U 92076A   26189.90694633 -.00000076  00000+0 -15300-4 0  9993
2 22219  71.0615 124.6680 0017846   7.5306 352.6080 14.14110096735514
SL-16 R/B               
1 22220U 92076B   26189.64073091  .00000141  00000+0  93963-4 0  9997
2 22220  71.0009 293.5883 0014984 270.4742 189.1163 14.16874525738962
COSMOS 2221             
1 22236U 92080A   26189.93593368  .00001189  00000+0  10189-3 0  9996
2 22236  82.5039 162.9268 0015317 139.4809 220.7557 14.96592175798921
SL-16 R/B               
1 22285U 92093B   26189.86729042 -.00000027  00000+0  10292-4 0  9993
2 22285  71.0224 109.8792 0002639 148.7552 211.3728 14.15467031730304
COSMOS 2228             
1 22286U 92094A   26189.93591313  .00001277  00000+0  10663-3 0  9999
2 22286  82.5190 121.2112 0016035 252.2567 107.6906 14.97662742794200
SL-16 R/B               
1 22566U 93016B   26189.77896026 -.00000134  00000+0 -44164-4 0  9993
2 22566  71.0084 320.8564 0009055 149.5406 210.6245 14.15311610719302
COSMOS 2242             
1 22626U 93024A   26189.90534355  .00001323  00000+0  11266-3 0  9993
2 22626  82.5194 150.7640 0014374 256.0301 103.9323 14.96972014798523
SL-16 R/B               
1 22803U 93059B   26189.94631462 -.00000153  00000+0 -51681-4 0  9997
2 22803  70.9907 115.4183 0016317  18.1304 342.0398 14.17251142696713
ARIANE 40 R/B           
1 22830U 93061H   26189.78224050  .00000121  00000+0  59910-4 0  9999
2 22830  98.4809 256.1897 0009472 287.2125  72.8022 14.32916884711446
COSMOS 2278             
1 23087U 94023A   26189.67590082 -.00000215  00000+0 -87563-4 0  9993
2 23087  71.0535 281.9662 0009954 215.5451 144.5009 14.14394308661910
SL-16 R/B               
1 23088U 94023B   26189.95083754 -.00000153  00000+0 -54380-4 0  9990
2 23088  70.9977 176.2254 0001545 150.3353 209.7858 14.15024143663249
SL-16 R/B               
1 23343U 94074B   26189.66411253  .00000296  00000+0  46113-4 0  9998
2 23343  97.6985 215.4894 0006623 174.3013 300.3375 14.79520704705136
